GLOBALSTAR M035         
1 25851U 99037A   26012.89318302 -.00000012  00000+0  19619-2 0  9995
2 25851  51.9978 307.3009 0013747 324.9238  77.8921 11.04541140119430
GLOBALSTAR M032         
1 25852U 99037B   26012.52702270 -.00000173  00000+0 -34239-2 0  9991
2 25852  51.9949 118.8706 0013327 157.7727 202.3653 11.19073260158223
GLOBALSTAR M051         
1 25853U 99037C   26012.91004792 -.00000079  00000+0 -18439-3 0  9999
2 25853  51.9780 254.9626 0000985  65.9302 294.1611 11.42199735156352
GLOBALSTAR M030         
1 25854U 99037D   26012.75657448 -.00000119  00000+0 -93358-3 0  9992
2 25854  51.9892  48.1068 0003409  65.6269 294.4903 11.55111788174266
GLOBALSTAR M048         
1 25872U 99041A   26012.82977296 -.00000051  00000+0  52882-3 0  9992
2 25872  51.9336 198.2924 0013164 181.9376 191.3325 11.33861851148765
GLOBALSTAR M026         
1 25873U 99041B   26012.87603730 -.00000099  00000+0 -13005-2 0  9993
2 25873  52.0022  63.0822 0001717 244.0709 286.7955 11.06843359171709
GLOBALSTAR M043         
1 25874U 99041C   26012.58769056 -.00000128  00000+0 -17794-2 0  9998
2 25874  51.9431 314.8550 0013458 311.2364 219.8913 11.25697092146453
GLOBALSTAR M028         
1 25875U 99041D   26012.95309085 -.00000076  00000+0  16022-3 0  9997
2 25875  51.9635 287.5747 0063092 166.4539 193.8032 12.50593975216429
